NORAD_CAT_ID,OBJECT_NAME,OBJECT_TYPE,EPOCH,MEAN_MOTION,ECCENTRICITY,INCLINATION,RA_OF_ASC_NODE,ARG_OF_PERICENTER,MEAN_ANOMALY,BSTAR,MEAN_MOTION_DOT,MEAN_MOTION_DDOT,TLE_LINE0,TLE_LINE1,TLE_LINE2,SEMIMAJOR_AXIS,PERIOD,APOGEE,PERIGEE,DECAYED
52625.0,STARLINK-3988,PAYLOAD,2024-05-23 22:38:41,15.08850221,0.0001368,53.2184,328.3897,108.6333,251.4807,0.00010073,1.316e-05,0.0,0 STARLINK-3988,1 52625U 22052AD  24144.94353695  .00001316  00000-0  10073-3 0  9995,2 52625  53.2184 328.3897 0001368 108.6333 251.4807 15.08850221112527,6917.849,95.437,540.661,538.768,0.0
52625.0,STARLINK-3988,PAYLOAD,2024-05-24 11:21:47,15.08833131,0.0001753,53.219,326.0056,149.6334,210.476,6.4002e-05,7.31e-06,0.0,0 STARLINK-3988,1 52625U 22052AD  24145.47346726  .00000731  00000-0  64002-4 0  9993,2 52625  53.2190 326.0056 0001753 149.6334 210.4760 15.08833131112603,6917.901,95.438,540.979,538.554,0.0
52625.0,STARLINK-3988,PAYLOAD,2024-05-24 20:54:05,15.08849361,0.0001111,53.218,324.2246,131.4262,228.6826,0.00020512,2.979e-05,0.0,0 STARLINK-3988,1 52625U 22052AD  24145.87089415  .00002979  00000-0  20512-3 0  9999,2 52625  53.2180 324.2246 0001111 131.4262 228.6826 15.08849361112280,6917.852,95.437,540.485,538.948,0.0
52625.0,STARLINK-3988,PAYLOAD,2024-05-25 19:09:30,15.0884386,0.0001185,53.2185,320.0644,77.1519,282.9605,-1.5107e-05,-5.28e-06,0.0,0 STARLINK-3988,1 52625U 22052AD  24146.79826781 -.00000528  00000-0 -15107-4 0  9991,2 52625  53.2185 320.0644 0001185  77.1519 282.9605 15.08843860112807,6917.869,95.437,540.553,538.914,0.0
52625.0,STARLINK-3988,PAYLOAD,2024-05-26 11:03:21,15.0884296,8.25e-05,53.2175,317.092,90.3789,269.7298,0.00011532,1.548e-05,0.0,0 STARLINK-3988,1 52625U 22052AD  24147.46066376  .00001548  00000-0  11532-3 0  9990,2 52625  53.2175 317.0920 0000825  90.3789 269.7298 15.08842960112525,6917.871,95.437,540.307,539.166,0.0
52625.0,STARLINK-3988,PAYLOAD,2024-05-26 20:35:39,15.08851531,9.75e-05,53.218,315.3057,106.7568,253.3531,5.6743e-05,6.16e-06,0.0,0 STARLINK-3988,1 52625U 22052AD  24147.85809777  .00000616  00000-0  56743-4 0  9992,2 52625  53.2180 315.3057 0000975 106.7568 253.3531 15.08851531112967,6917.845,95.437,540.385,539.036,0.0
52625.0,STARLINK-3988,PAYLOAD,2024-05-27 04:32:35,15.08845607,5.22e-05,53.2183,313.822,91.2531,268.8521,-4.8826e-05,-1.065e-05,0.0,0 STARLINK-3988,1 52625U 22052AD  24148.18930192 -.00001065  00000-0 -48826-4 0  9999,2 52625  53.2183 313.8220 0000522  91.2531 268.8521 15.08845607113015,6917.863,95.437,540.089,539.367,0.0
52625.0,STARLINK-3988,PAYLOAD,2024-05-28 17:06:27,15.08842985,0.0001183,53.2192,306.9855,77.7539,282.3586,7.3283e-05,8.79e-06,0.0,0 STARLINK-3988,1 52625U 22052AD  24149.71282407  .00000879  00000-0  73283-4 0  9993,2 52625  53.2192 306.9855 0001183  77.7539 282.3586 15.08842985113246,6917.871,95.437,540.555,538.918,0.0
52625.0,STARLINK-3988,PAYLOAD,2024-05-29 13:46:29,15.08813523,0.0001397,53.2196,303.1209,87.9231,272.1921,0.00037111,5.619e-05,0.0,0 STARLINK-3988,1 52625U 22052AD  24150.57394957  .00005619  00000-0  37111-3 0  9999,2 52625  53.2196 303.1209 0001397  87.9231 272.1921 15.08813523112998,6917.961,95.439,540.793,538.86,0.0
52625.0,STARLINK-3988,PAYLOAD,2024-05-29 20:08:01,15.08847603,0.000131,53.2193,301.9262,88.2976,271.8166,1.0522e-05,-1.2e-06,0.0,0 STARLINK-3988,1 52625U 22052AD  24150.83890178 -.00000120  00000-0  10522-4 0  9995,2 52625  53.2193 301.9262 0001310  88.2976 271.8166 15.08847603113416,6917.857,95.437,540.628,538.816,0.0
52625.0,STARLINK-3988,PAYLOAD,2024-05-30 08:51:06,15.0883692,0.0001366,53.2184,299.5467,111.3972,248.7166,4.5877e-05,4.42e-06,0.0,0 STARLINK-3988,1 52625U 22052AD  24151.36882598  .00000442  00000-0  45877-4 0  9998,2 52625  53.2184 299.5467 0001366 111.3972 248.7166 15.08836920113491,6917.89,95.438,540.7,538.81,0.0
52625.0,STARLINK-3988,PAYLOAD,2024-05-30 13:37:15,15.08834314,0.0001435,53.219,298.6563,113.7733,246.3409,0.00014438,2.01e-05,0.0,0 STARLINK-3988,1 52625U 22052AD  24151.56754456  .00002010  00000-0  14438-3 0  9992,2 52625  53.2190 298.6563 0001435 113.7733 246.3409 15.08834314113144,6917.898,95.438,540.755,538.77,0.0
52625.0,STARLINK-3988,PAYLOAD,2024-05-30 15:12:38,15.08842912,0.0001396,53.2182,298.3585,113.9423,246.1716,6.0974e-05,6.83e-06,0.0,0 STARLINK-3988,1 52625U 22052AD  24151.63378217  .00000683  00000-0  60974-4 0  9998,2 52625  53.2182 298.3585 0001396 113.9423 246.1716 15.08842912113153,6917.871,95.437,540.702,538.771,0.0
52625.0,STARLINK-3988,PAYLOAD,2024-05-31 13:28:02,15.0883917,0.0001423,53.2182,294.196,117.4285,242.6852,3.5276e-05,2.74e-06,0.0,0 STARLINK-3988,1 52625U 22052AD  24152.56114529  .00000274  00000-0  35276-4 0  9998,2 52625  53.2182 294.1960 0001423 117.4285 242.6852 15.08839170113299,6917.883,95.438,540.732,538.764,0.0
52625.0,STARLINK-3988,PAYLOAD,2024-05-31 18:14:12,15.08841929,0.0001135,53.2192,293.3058,88.2561,271.8561,6.8045e-05,7.95e-06,0.0,0 STARLINK-3988,1 52625U 22052AD  24152.75986399  .00000795  00000-0  68045-4 0  9999,2 52625  53.2192 293.3058 0001135  88.2561 271.8561 15.08841929113703,6917.874,95.437,540.525,538.954,0.0
52625.0,STARLINK-3988,PAYLOAD,2024-06-01 14:54:14,15.08831316,0.0001476,53.2194,289.4388,85.0318,275.0843,-8.4275e-05,-1.629e-05,0.0,0 STARLINK-3988,1 52625U 22052AD  24153.62099799 -.00001629  00000-0 -84275-4 0  9997,2 52625  53.2194 289.4388 0001476  85.0318 275.0843 15.08831316113450,6917.907,95.438,540.793,538.751,0.0
52625.0,STARLINK-3988,PAYLOAD,2024-06-01 18:05:00,15.08838043,0.0001348,53.219,288.8424,81.1932,278.9213,-4.6079e-05,-1.021e-05,0.0,0 STARLINK-3988,1 52625U 22052AD  24153.75347266 -.00001021  00000-0 -46079-4 0  9992,2 52625  53.2190 288.8424 0001348  81.1932 278.9213 15.08838043113858,6917.886,95.438,540.684,538.819,0.0
52625.0,STARLINK-3988,PAYLOAD,2024-06-02 08:23:28,15.08833511,0.0001364,53.2193,286.167,82.3645,277.7502,6.2512e-05,7.07e-06,0.0,0 STARLINK-3988,1 52625U 22052AD  24154.34963421  .00000707  00000-0  62512-4 0  9993,2 52625  53.2193 286.1670 0001364  82.3645 277.7502 15.08833511113568,6917.9,95.438,540.709,538.822,0.0
52625.0,STARLINK-3988,PAYLOAD,2024-06-03 01:52:42,15.08843498,0.0001365,53.2191,282.8971,84.9955,275.1193,3.4733e-05,2.65e-06,0.0,0 STARLINK-3988,1 52625U 22052AD  24155.07826998  .00000265  00000-0  34733-4 0  9994,2 52625  53.2191 282.8971 0001365  84.9955 275.1193 15.08843498114054,6917.87,95.437,540.679,538.79,0.0
52625.0,STARLINK-3988,PAYLOAD,2024-06-03 08:14:15,15.08816533,0.0001414,53.2186,281.7079,87.4185,272.6969,0.00042476,6.474e-05,0.0,0 STARLINK-3988,1 52625U 22052AD  24155.34323798  .00006474  00000-0  42476-3 0  9994,2 52625  53.2186 281.7079 0001414  87.4185 272.6969 15.08816533114090,6917.952,95.439,540.795,538.839,0.0
52625.0,STARLINK-3988,PAYLOAD,2024-06-03 14:35:48,15.08818832,0.0001185,53.2178,280.5186,89.5248,270.588,0.00049028,7.519e-05,0.0,0 STARLINK-3988,1 52625U 22052AD  24155.60819815  .00007519  00000-0  49028-3 0  9994,2 52625  53.2178 280.5186 0001185  89.5248 270.5880 15.08818832113750,6917.945,95.439,540.63,538.99,0.0
52625.0,STARLINK-3988,PAYLOAD,2024-06-03 17:46:33,15.08847122,0.0001425,53.2187,279.9241,80.7535,279.3619,0.00014506,2.022e-05,0.0,0 STARLINK-3988,1 52625U 22052AD  24155.74066652  .00002022  00000-0  14506-3 0  9999,2 52625  53.2187 279.9241 0001425  80.7535 279.3619 15.08847122114159,6917.859,95.437,540.709,538.738,0.0
52625.0,STARLINK-3988,PAYLOAD,2024-06-04 01:43:29,15.08843034,0.0001148,53.2152,278.4348,99.8257,260.2865,7.242e-05,8.65e-06,0.0,0 STARLINK-3988,1 52625U 22052AD  24156.07186879  .00000865  00000-0  72420-4 0  9993,2 52625  53.2152 278.4348 0001148  99.8257 260.2865 15.08843034114203,6917.871,95.437,540.53,538.942,0.0
52625.0,STARLINK-3988,PAYLOAD,2024-06-04 14:26:34,15.0883365,0.0001345,53.2137,276.0551,89.195,270.9196,0.00020124,2.916e-05,0.0,0 STARLINK-3988,1 52625U 22052AD  24156.60179348  .00002916  00000-0  20124-3 0  9997,2 52625  53.2137 276.0551 0001345  89.1950 270.9196 15.08833650113901,6917.9,95.438,540.695,538.834,0.0
52625.0,STARLINK-3988,PAYLOAD,2024-06-05 14:17:21,15.08841903,0.00013,53.2128,271.5929,98.6398,261.4741,5.343e-06,-2.03e-06,0.0,0 STARLINK-3988,1 52625U 22052AD  24157.59538991 -.00000203  00000-0  53430-5 0  9995,2 52625  53.2128 271.5929 0001300  98.6398 261.4741 15.08841903114050,6917.875,95.437,540.639,538.84,0.0
52625.0,STARLINK-3988,PAYLOAD,2024-06-06 04:35:50,15.08835334,0.0001192,53.2182,268.9186,101.5955,258.517,2.5196e-05,1.13e-06,0.0,0 STARLINK-3988,1 52625U 22052AD  24158.19155501  .00000113  00000-0  25196-4 0  9990,2 52625  53.2182 268.9186 0001192 101.5955 258.5170 15.08835334114523,6917.895,95.438,540.584,538.935,0.0
52625.0,STARLINK-3988,PAYLOAD,2024-06-06 12:32:45,15.08839473,0.0001344,53.2189,267.4322,99.4134,260.701,3.8085e-05,3.18e-06,0.0,0 STARLINK-3988,1 52625U 22052AD  24158.52275316  .00000318  00000-0  38085-4 0  9992,2 52625  53.2189 267.4322 0001344  99.4134 260.7010 15.08839473114198,6917.882,95.438,540.677,538.817,0.0
52625.0,STARLINK-3988,PAYLOAD,2024-06-06 17:18:54,15.08844115,0.0001578,53.2174,266.5396,99.4846,260.6325,0.00013948,1.933e-05,0.0,0 STARLINK-3988,1 52625U 22052AD  24158.72146736  .00001933  00000-0  13948-3 0  9991,2 52625  53.2174 266.5396 0001578  99.4846 260.6325 15.08844115114605,6917.868,95.437,540.824,538.641,0.0
52625.0,STARLINK-3988,PAYLOAD,2024-06-07 13:58:56,15.08836581,0.0001204,53.216,262.6761,94.6603,265.4526,0.00012071,1.634e-05,0.0,0 STARLINK-3988,1 52625U 22052AD  24159.58259594  .00001634  00000-0  12071-3 0  9997,2 52625  53.2160 262.6761 0001204  94.6603 265.4526 15.08836581114353,6917.891,95.438,540.589,538.923,0.0
52625.0,STARLINK-3988,PAYLOAD,2024-06-08 12:14:19,15.08849258,0.0001329,53.2164,258.5131,100.0347,260.0795,0.00017258,2.46e-05,0.0,0 STARLINK-3988,1 52625U 22052AD  24160.50994652  .00002460  00000-0  17258-3 0  9992,2 52625  53.2164 258.5131 0001329 100.0347 260.0795 15.08849258114878,6917.852,95.437,540.636,538.798,0.0
